[{"OBJECT_NAME":"RAWHIDE-1","OBJECT_ID":"2026-074C","EPOCH":"2026-04-20T12:22:09.195744","MEAN_MOTION":15.23830477,"ECCENTRICITY":0.00189438,"INCLINATION":60.0239,"RA_OF_ASC_NODE":39.4213,"ARG_OF_PERICENTER":328.5105,"MEAN_ANOMALY":31.484,"EPHEMERIS_TYPE":0,"CLASSIFICATION_TYPE":"U","NORAD_CAT_ID":68629,"ELEMENT_SET_NO":999,"REV_AT_EPOCH":199,"BSTAR":0.00035909464,"MEAN_MOTION_DOT":8.49e-5,"MEAN_MOTION_DDOT":0},{"OBJECT_NAME":"STPSAT-7","OBJECT_ID":"2026-074D","EPOCH":"2026-04-20T18:36:26.155008","MEAN_MOTION":15.24078235,"ECCENTRICITY":0.00171072,"INCLINATION":60.0239,"RA_OF_ASC_NODE":38.4036,"ARG_OF_PERICENTER":333.3328,"MEAN_ANOMALY":26.6871,"EPHEMERIS_TYPE":0,"CLASSIFICATION_TYPE":"U","NORAD_CAT_ID":68630,"ELEMENT_SET_NO":999,"REV_AT_EPOCH":202,"BSTAR":0.00019343585,"MEAN_MOTION_DOT":4.468e-5,"MEAN_MOTION_DDOT":0},{"OBJECT_NAME":"STP-S29A OBJECT E","OBJECT_ID":"2026-074E","EPOCH":"2026-04-20T18:36:17.781984","MEAN_MOTION":15.24078738,"ECCENTRICITY":0.00176914,"INCLINATION":60.023,"RA_OF_ASC_NODE":38.4007,"ARG_OF_PERICENTER":333.2291,"MEAN_ANOMALY":26.7875,"EPHEMERIS_TYPE":0,"CLASSIFICATION_TYPE":"U","NORAD_CAT_ID":68631,"ELEMENT_SET_NO":999,"REV_AT_EPOCH":203,"BSTAR":0.00013979945,"MEAN_MOTION_DOT":3.149e-5,"MEAN_MOTION_DDOT":0},{"OBJECT_NAME":"RAWHIDE-2","OBJECT_ID":"2026-074F","EPOCH":"2026-04-20T12:12:14.647968","MEAN_MOTION":15.24642474,"ECCENTRICITY":0.00180473,"INCLINATION":60.0327,"RA_OF_ASC_NODE":39.4056,"ARG_OF_PERICENTER":337.8277,"MEAN_ANOMALY":22.2021,"EPHEMERIS_TYPE":0,"CLASSIFICATION_TYPE":"U","NORAD_CAT_ID":68632,"ELEMENT_SET_NO":999,"REV_AT_EPOCH":198,"BSTAR":0.00040247598,"MEAN_MOTION_DOT":9.788e-5,"MEAN_MOTION_DDOT":0},{"OBJECT_NAME":"MISR-C-2","OBJECT_ID":"2026-074G","EPOCH":"2026-04-20T18:24:40.289472","MEAN_MOTION":15.25037321,"ECCENTRICITY":0.00188066,"INCLINATION":60.023,"RA_OF_ASC_NODE":38.3607,"ARG_OF_PERICENTER":344.1248,"MEAN_ANOMALY":15.9241,"EPHEMERIS_TYPE":0,"CLASSIFICATION_TYPE":"U","NORAD_CAT_ID":68633,"ELEMENT_SET_NO":999,"REV_AT_EPOCH":202,"BSTAR":0.00027132296,"MEAN_MOTION_DOT":6.582e-5,"MEAN_MOTION_DDOT":0},{"OBJECT_NAME":"AGGIESAT6 (AGS6)","OBJECT_ID":"2026-074H","EPOCH":"2026-04-20T05:44:54.959136","MEAN_MOTION":15.25419635,"ECCENTRICITY":0.00196672,"INCLINATION":60.0222,"RA_OF_ASC_NODE":40.3567,"ARG_OF_PERICENTER":346.9242,"MEAN_ANOMALY":13.1327,"EPHEMERIS_TYPE":0,"CLASSIFICATION_TYPE":"U","NORAD_CAT_ID":68634,"ELEMENT_SET_NO":999,"REV_AT_EPOCH":195,"BSTAR":0.00031084563,"MEAN_MOTION_DOT":7.678e-5,"MEAN_MOTION_DDOT":0},{"OBJECT_NAME":"CANVAS","OBJECT_ID":"2026-074J","EPOCH":"2026-04-20T12:19:27.524928","MEAN_MOTION":15.24063382,"ECCENTRICITY":0.00194322,"INCLINATION":60.0251,"RA_OF_ASC_NODE":39.4176,"ARG_OF_PERICENTER":331.9521,"MEAN_ANOMALY":28.0511,"EPHEMERIS_TYPE":0,"CLASSIFICATION_TYPE":"U","NORAD_CAT_ID":68635,"ELEMENT_SET_NO":999,"REV_AT_EPOCH":199,"BSTAR":0.00041778419,"MEAN_MOTION_DOT":0.0001,"MEAN_MOTION_DDOT":0},{"OBJECT_NAME":"QIANFAN-109","OBJECT_ID":"2026-075A","EPOCH":"2026-04-21T14:25:38.013024","MEAN_MOTION":14.19019651,"ECCENTRICITY":0.0014532,"INCLINATION":88.9902,"RA_OF_ASC_NODE":327.1006,"ARG_OF_PERICENTER":167.0866,"MEAN_ANOMALY":193.0699,"EPHEMERIS_TYPE":0,"CLASSIFICATION_TYPE":"U","NORAD_CAT_ID":68636,"ELEMENT_SET_NO":999,"REV_AT_EPOCH":199,"BSTAR":7.4541e-5,"MEAN_MOTION_DOT":1.7e-6,"MEAN_MOTION_DDOT":0},{"OBJECT_NAME":"QIANFAN-110","OBJECT_ID":"2026-075B","EPOCH":"2026-04-21T16:01:06.081600","MEAN_MOTION":14.17658393,"ECCENTRICITY":0.0015448,"INCLINATION":88.9902,"RA_OF_ASC_NODE":327.0922,"ARG_OF_PERICENTER":167.974,"MEAN_ANOMALY":192.1821,"EPHEMERIS_TYPE":0,"CLASSIFICATION_TYPE":"U","NORAD_CAT_ID":68637,"ELEMENT_SET_NO":999,"REV_AT_EPOCH":200,"BSTAR":0.00019138,"MEAN_MOTION_DOT":4.04e-6,"MEAN_MOTION_DDOT":0},{"OBJECT_NAME":"QIANFAN-111","OBJECT_ID":"2026-075C","EPOCH":"2026-04-21T15:57:17.167392","MEAN_MOTION":14.19330536,"ECCENTRICITY":0.0015221,"INCLINATION":88.9904,"RA_OF_ASC_NODE":327.0917,"ARG_OF_PERICENTER":170.2855,"MEAN_ANOMALY":189.8632,"EPHEMERIS_TYPE":0,"CLASSIFICATION_TYPE":"U","NORAD_CAT_ID":68638,"ELEMENT_SET_NO":999,"REV_AT_EPOCH":200,"BSTAR":7.175e-5,"MEAN_MOTION_DOT":1.65e-6,"MEAN_MOTION_DDOT":0},{"OBJECT_NAME":"QIANFAN-112","OBJECT_ID":"2026-075D","EPOCH":"2026-04-21T15:59:58.636032","MEAN_MOTION":14.19386848,"ECCENTRICITY":0.0015665,"INCLINATION":88.9902,"RA_OF_ASC_NODE":327.0916,"ARG_OF_PERICENTER":168.9104,"MEAN_ANOMALY":191.2434,"EPHEMERIS_TYPE":0,"CLASSIFICATION_TYPE":"U","NORAD_CAT_ID":68639,"ELEMENT_SET_NO":999,"REV_AT_EPOCH":200,"BSTAR":7.7722e-5,"MEAN_MOTION_DOT":1.78e-6,"MEAN_MOTION_DDOT":0},{"OBJECT_NAME":"QIANFAN-113","OBJECT_ID":"2026-075E","EPOCH":"2026-04-21T15:50:38.071104","MEAN_MOTION":14.19429048,"ECCENTRICITY":0.0015392,"INCLINATION":88.9904,"RA_OF_ASC_NODE":327.0911,"ARG_OF_PERICENTER":167.7472,"MEAN_ANOMALY":192.4095,"EPHEMERIS_TYPE":0,"CLASSIFICATION_TYPE":"U","NORAD_CAT_ID":68640,"ELEMENT_SET_NO":999,"REV_AT_EPOCH":200,"BSTAR":8.0922e-5,"MEAN_MOTION_DOT":1.85e-6,"MEAN_MOTION_DDOT":0},{"OBJECT_NAME":"QIANFAN-114","OBJECT_ID":"2026-075F","EPOCH":"2026-04-21T15:40:29.703648","MEAN_MOTION":14.17478902,"ECCENTRICITY":0.0020964,"INCLINATION":88.9897,"RA_OF_ASC_NODE":327.0901,"ARG_OF_PERICENTER":183.8787,"MEAN_ANOMALY":176.2243,"EPHEMERIS_TYPE":0,"CLASSIFICATION_TYPE":"U","NORAD_CAT_ID":68641,"ELEMENT_SET_NO":999,"REV_AT_EPOCH":200,"BSTAR":-1.0806,"MEAN_MOTION_DOT":-0.02030491,"MEAN_MOTION_DDOT":0},{"OBJECT_NAME":"QIANFAN-115","OBJECT_ID":"2026-075G","EPOCH":"2026-04-21T15:38:34.099584","MEAN_MOTION":14.20356429,"ECCENTRICITY":0.0015339,"INCLINATION":88.9903,"RA_OF_ASC_NODE":327.0896,"ARG_OF_PERICENTER":169.6987,"MEAN_ANOMALY":190.4521,"EPHEMERIS_TYPE":0,"CLASSIFICATION_TYPE":"U","NORAD_CAT_ID":68642,"ELEMENT_SET_NO":999,"REV_AT_EPOCH":200,"BSTAR":8.881e-5,"MEAN_MOTION_DOT":2.05e-6,"MEAN_MOTION_DDOT":0},{"OBJECT_NAME":"QIANFAN-116","OBJECT_ID":"2026-075H","EPOCH":"2026-04-21T15:35:17.473920","MEAN_MOTION":14.18411217,"ECCENTRICITY":0.0019781,"INCLINATION":88.9898,"RA_OF_ASC_NODE":327.0887,"ARG_OF_PERICENTER":181.7882,"MEAN_ANOMALY":178.324,"EPHEMERIS_TYPE":0,"CLASSIFICATION_TYPE":"U","NORAD_CAT_ID":68643,"ELEMENT_SET_NO":999,"REV_AT_EPOCH":200,"BSTAR":-1.0363,"MEAN_MOTION_DOT":-0.0198432,"MEAN_MOTION_DDOT":0},{"OBJECT_NAME":"QIANFAN-117","OBJECT_ID":"2026-075J","EPOCH":"2026-04-21T15:44:27.821184","MEAN_MOTION":14.20246144,"ECCENTRICITY":0.00152,"INCLINATION":88.9903,"RA_OF_ASC_NODE":327.0903,"ARG_OF_PERICENTER":168.1403,"MEAN_ANOMALY":192.0148,"EPHEMERIS_TYPE":0,"CLASSIFICATION_TYPE":"U","NORAD_CAT_ID":68644,"ELEMENT_SET_NO":999,"REV_AT_EPOCH":200,"BSTAR":8.3228e-5,"MEAN_MOTION_DOT":1.92e-6,"MEAN_MOTION_DDOT":0},{"OBJECT_NAME":"QIANFAN-118","OBJECT_ID":"2026-075K","EPOCH":"2026-04-21T02:06:23.195808","MEAN_MOTION":14.21898366,"ECCENTRICITY":0.00148716,"INCLINATION":88.9903,"RA_OF_ASC_NODE":327.1542,"ARG_OF_PERICENTER":169.2367,"MEAN_ANOMALY":190.9146,"EPHEMERIS_TYPE":0,"CLASSIFICATION_TYPE":"U","NORAD_CAT_ID":68645,"ELEMENT_SET_NO":999,"REV_AT_EPOCH":192,"BSTAR":7.7622578e-5,"MEAN_MOTION_DOT":1.86e-6,"MEAN_MOTION_DDOT":0}]
