RAWHIDE-1
1 68629U 26074C   26110.51538421  .00008490  00000+0  35909-3 0  9998
2 68629  60.0239  39.4213 0018943 328.5105  31.4840 15.23830477  1993
STPSAT-7
1 68630U 26074D   26110.77530272  .00004468  00000+0  19344-3 0  9990
2 68630  60.0239  38.4036 0017107 333.3328  26.6871 15.24078235  2021
STP-S29A OBJECT E
1 68631U 26074E   26110.77520581  .00003149  00000+0  13980-3 0  9998
2 68631  60.0230  38.4007 0017691 333.2291  26.7875 15.24078738  2031
RAWHIDE-2
1 68632U 26074F   26110.50850287  .00009788  00000+0  40248-3 0  9991
2 68632  60.0327  39.4056 0018047 337.8277  22.2021 15.24642474  1985
MISR-C-2
1 68633U 26074G   26110.76713298  .00006582  00000+0  27132-3 0  9996
2 68633  60.0230  38.3607 0018806 344.1248  15.9241 15.25037321  2020
AGGIESAT6 (AGS6)
1 68634U 26074H   26110.23952499  .00007678  00000+0  31085-3 0  9996
2 68634  60.0222  40.3567 0019667 346.9242  13.1327 15.25419635  1958
CANVAS
1 68635U 26074J   26110.51351302  .00010000  00000+0  41778-3 0  9997
2 68635  60.0251  39.4176 0019432 331.9521  28.0511 15.24063382  1997
QIANFAN-109
1 68636U 26075A   26111.60113441  .00000170  00000+0  74541-4 0  9992
2 68636  88.9902 327.1006 0014532 167.0866 193.0699 14.19019651  1998
QIANFAN-110
1 68637U 26075B   26111.66743150  .00000404  00000+0  19138-3 0  9995
2 68637  88.9902 327.0922 0015448 167.9740 192.1821 14.17658393  2002
QIANFAN-111
1 68638U 26075C   26111.66478203  .00000165  00000+0  71750-4 0  9993
2 68638  88.9904 327.0917 0015221 170.2855 189.8632 14.19330536  2003
QIANFAN-112
1 68639U 26075D   26111.66665088  .00000178  00000+0  77722-4 0  9992
2 68639  88.9902 327.0916 0015665 168.9104 191.2434 14.19386848  2008
QIANFAN-113
1 68640U 26075E   26111.66016286  .00000185  00000+0  80922-4 0  9998
2 68640  88.9904 327.0911 0015392 167.7472 192.4095 14.19429048  2005
QIANFAN-114
1 68641U 26075F   26111.65312157 -.02030491  00000+0 -10806+1 0  9991
2 68641  88.9897 327.0901 0020964 183.8787 176.2243 14.17478902  2001
QIANFAN-115
1 68642U 26075G   26111.65178356  .00000205  00000+0  88810-4 0  9993
2 68642  88.9903 327.0896 0015339 169.6987 190.4521 14.20356429  2007
QIANFAN-116
1 68643U 26075H   26111.64950780 -.01984320  00000+0 -10363+1 0  9998
2 68643  88.9898 327.0887 0019781 181.7882 178.3240 14.18411217  2002
QIANFAN-117
1 68644U 26075J   26111.65587756  .00000192  00000+0  83228-4 0  9996
2 68644  88.9903 327.0903 0015200 168.1403 192.0148 14.20246144  2007
QIANFAN-118
1 68645U 26075K   26111.08776847  .00000186  00000+0  77623-4 0  9990
2 68645  88.9903 327.1542 0014871 169.2367 190.9146 14.21898366  1927
